CCSDS_OMM_VERS = 2.0
CREATION_DATE  = 
ORIGINATOR     = 

OBJECT_NAME    = STARLINK-35907
OBJECT_ID      = 2025-263P
CENTER_NAME    = EARTH
REF_FRAME      = TEME
TIME_SYSTEM    = UTC
MEAN_ELEMENT_THEORY = SGP/SGP4

EPOCH          = 2025-12-03T08:00:01.999872
MEAN_MOTION    = 15.72097847
ECCENTRICITY   = .0001653
INCLINATION    = 42.9992
RA_OF_ASC_NODE = 180.5889
ARG_OF_PERICENTER = 269.4383
MEAN_ANOMALY   = 195.2841

EPHEMERIS_TYPE = 0
CLASSIFICATION_TYPE = U
NORAD_CAT_ID   = 66498
ELEMENT_SET_NO = 999
REV_AT_EPOCH   = 412
BSTAR          = -.16662921E-1
MEAN_MOTION_DOT = -.1991247E-1
MEAN_MOTION_DDOT = 0

CCSDS_OMM_VERS = 2.0
CREATION_DATE  = 
ORIGINATOR     = 

OBJECT_NAME    = STARLINK-35816
OBJECT_ID      = 2025-263Q
CENTER_NAME    = EARTH
REF_FRAME      = TEME
TIME_SYSTEM    = UTC
MEAN_ELEMENT_THEORY = SGP/SGP4

EPOCH          = 2025-12-03T08:00:01.999872
MEAN_MOTION    = 15.72095848
ECCENTRICITY   = .00016342
INCLINATION    = 42.9990
RA_OF_ASC_NODE = 180.5797
ARG_OF_PERICENTER = 273.5375
MEAN_ANOMALY   = 195.0207

EPHEMERIS_TYPE = 0
CLASSIFICATION_TYPE = U
NORAD_CAT_ID   = 66499
ELEMENT_SET_NO = 999
REV_AT_EPOCH   = 412
BSTAR          = -.16643441E-1
MEAN_MOTION_DOT = -.1989027E-1
MEAN_MOTION_DDOT = 0

CCSDS_OMM_VERS = 2.0
CREATION_DATE  = 
ORIGINATOR     = 

OBJECT_NAME    = STARLINK-35894
OBJECT_ID      = 2025-263R
CENTER_NAME    = EARTH
REF_FRAME      = TEME
TIME_SYSTEM    = UTC
MEAN_ELEMENT_THEORY = SGP/SGP4

EPOCH          = 2025-12-03T08:00:01.999872
MEAN_MOTION    = 15.71580535
ECCENTRICITY   = .00015386
INCLINATION    = 42.9992
RA_OF_ASC_NODE = 180.5858
ARG_OF_PERICENTER = 273.0233
MEAN_ANOMALY   = 193.1385

EPHEMERIS_TYPE = 0
CLASSIFICATION_TYPE = U
NORAD_CAT_ID   = 66500
ELEMENT_SET_NO = 999
REV_AT_EPOCH   = 412
BSTAR          = -.21510421E-1
MEAN_MOTION_DOT = -.2492291E-1
MEAN_MOTION_DDOT = 0

CCSDS_OMM_VERS = 2.0
CREATION_DATE  = 
ORIGINATOR     = 

OBJECT_NAME    = STARLINK-35897
OBJECT_ID      = 2025-263S
CENTER_NAME    = EARTH
REF_FRAME      = TEME
TIME_SYSTEM    = UTC
MEAN_ELEMENT_THEORY = SGP/SGP4

EPOCH          = 2025-12-03T08:00:01.999872
MEAN_MOTION    = 15.72092241
ECCENTRICITY   = .00015514
INCLINATION    = 42.9991
RA_OF_ASC_NODE = 180.5747
ARG_OF_PERICENTER = 270.9116
MEAN_ANOMALY   = 199.5668

EPHEMERIS_TYPE = 0
CLASSIFICATION_TYPE = U
NORAD_CAT_ID   = 66501
ELEMENT_SET_NO = 999
REV_AT_EPOCH   = 412
BSTAR          = -.1661475E-1
MEAN_MOTION_DOT = -.1985661E-1
MEAN_MOTION_DDOT = 0

CCSDS_OMM_VERS = 2.0
CREATION_DATE  = 
ORIGINATOR     = 

OBJECT_NAME    = STARLINK-35922
OBJECT_ID      = 2025-263T
CENTER_NAME    = EARTH
REF_FRAME      = TEME
TIME_SYSTEM    = UTC
MEAN_ELEMENT_THEORY = SGP/SGP4

EPOCH          = 2025-12-03T06:00:02.999808
MEAN_MOTION    = 15.72458863
ECCENTRICITY   = .00017117
INCLINATION    = 42.9991
RA_OF_ASC_NODE = 181.0631
ARG_OF_PERICENTER = 270.3670
MEAN_ANOMALY   = 93.6708

EPHEMERIS_TYPE = 0
CLASSIFICATION_TYPE = U
NORAD_CAT_ID   = 66502
ELEMENT_SET_NO = 999
REV_AT_EPOCH   = 411
BSTAR          = -.16458082E-1
MEAN_MOTION_DOT = -.1996875E-1
MEAN_MOTION_DDOT = 0

CCSDS_OMM_VERS = 2.0
CREATION_DATE  = 
ORIGINATOR     = 

OBJECT_NAME    = STARLINK-35917
OBJECT_ID      = 2025-263U
CENTER_NAME    = EARTH
REF_FRAME      = TEME
TIME_SYSTEM    = UTC
MEAN_ELEMENT_THEORY = SGP/SGP4

EPOCH          = 2025-12-03T06:00:02.999808
MEAN_MOTION    = 15.72454852
ECCENTRICITY   = .00016606
INCLINATION    = 42.9990
RA_OF_ASC_NODE = 181.0536
ARG_OF_PERICENTER = 271.6287
MEAN_ANOMALY   = 96.2485

EPHEMERIS_TYPE = 0
CLASSIFICATION_TYPE = U
NORAD_CAT_ID   = 66503
ELEMENT_SET_NO = 999
REV_AT_EPOCH   = 411
BSTAR          = -.16446633E-1
MEAN_MOTION_DOT = -.1995302E-1
MEAN_MOTION_DDOT = 0

CCSDS_OMM_VERS = 2.0
CREATION_DATE  = 
ORIGINATOR     = 

OBJECT_NAME    = STARLINK-35916
OBJECT_ID      = 2025-263V
CENTER_NAME    = EARTH
REF_FRAME      = TEME
TIME_SYSTEM    = UTC
MEAN_ELEMENT_THEORY = SGP/SGP4

EPOCH          = 2025-12-03T06:00:02.999808
MEAN_MOTION    = 15.53795368
ECCENTRICITY   = .00015821
INCLINATION    = 42.9992
RA_OF_ASC_NODE = 181.5334
ARG_OF_PERICENTER = 284.1196
MEAN_ANOMALY   = 250.5204

EPHEMERIS_TYPE = 0
CLASSIFICATION_TYPE = U
NORAD_CAT_ID   = 66504
ELEMENT_SET_NO = 999
REV_AT_EPOCH   = 411
BSTAR          = -.36671705E-1
MEAN_MOTION_DOT = -.214238E-1
MEAN_MOTION_DDOT = 0

CCSDS_OMM_VERS = 2.0
CREATION_DATE  = 
ORIGINATOR     = 

OBJECT_NAME    = STARLINK-34766
OBJECT_ID      = 2025-263W
CENTER_NAME    = EARTH
REF_FRAME      = TEME
TIME_SYSTEM    = UTC
MEAN_ELEMENT_THEORY = SGP/SGP4

EPOCH          = 2025-12-03T06:00:02.999808
MEAN_MOTION    = 15.72460279
ECCENTRICITY   = .00017164
INCLINATION    = 42.9991
RA_OF_ASC_NODE = 181.0728
ARG_OF_PERICENTER = 263.6615
MEAN_ANOMALY   = 96.5403

EPHEMERIS_TYPE = 0
CLASSIFICATION_TYPE = U
NORAD_CAT_ID   = 66505
ELEMENT_SET_NO = 999
REV_AT_EPOCH   = 411
BSTAR          = -.16472627E-1
MEAN_MOTION_DOT = -.1998543E-1
MEAN_MOTION_DDOT = 0

CCSDS_OMM_VERS = 2.0
CREATION_DATE  = 
ORIGINATOR     = 

OBJECT_NAME    = STARLINK-34765
OBJECT_ID      = 2025-263X
CENTER_NAME    = EARTH
REF_FRAME      = TEME
TIME_SYSTEM    = UTC
MEAN_ELEMENT_THEORY = SGP/SGP4

EPOCH          = 2025-12-03T06:00:02.999808
MEAN_MOTION    = 15.72457756
ECCENTRICITY   = .0001669
INCLINATION    = 42.9990
RA_OF_ASC_NODE = 181.0686
ARG_OF_PERICENTER = 263.8283
MEAN_ANOMALY   = 98.2926

EPHEMERIS_TYPE = 0
CLASSIFICATION_TYPE = U
NORAD_CAT_ID   = 66506
ELEMENT_SET_NO = 999
REV_AT_EPOCH   = 411
BSTAR          = -.16451597E-1
MEAN_MOTION_DOT = -.1996061E-1
MEAN_MOTION_DDOT = 0

CCSDS_OMM_VERS = 2.0
CREATION_DATE  = 
ORIGINATOR     = 

OBJECT_NAME    = STARLINK-34767
OBJECT_ID      = 2025-263Y
CENTER_NAME    = EARTH
REF_FRAME      = TEME
TIME_SYSTEM    = UTC
MEAN_ELEMENT_THEORY = SGP/SGP4

EPOCH          = 2025-12-03T06:00:02.999808
MEAN_MOTION    = 15.72456087
ECCENTRICITY   = .00018019
INCLINATION    = 42.9990
RA_OF_ASC_NODE = 181.0579
ARG_OF_PERICENTER = 272.3876
MEAN_ANOMALY   = 93.5714

EPHEMERIS_TYPE = 0
CLASSIFICATION_TYPE = U
NORAD_CAT_ID   = 66507
ELEMENT_SET_NO = 999
REV_AT_EPOCH   = 411
BSTAR          = -.16463184E-1
MEAN_MOTION_DOT = -.1997289E-1
MEAN_MOTION_DDOT = 0

CCSDS_OMM_VERS = 2.0
CREATION_DATE  = 
ORIGINATOR     = 

OBJECT_NAME    = STARLINK-35608
OBJECT_ID      = 2025-263Z
CENTER_NAME    = EARTH
REF_FRAME      = TEME
TIME_SYSTEM    = UTC
MEAN_ELEMENT_THEORY = SGP/SGP4

EPOCH          = 2025-12-03T06:00:02.999808
MEAN_MOTION    = 15.72457762
ECCENTRICITY   = .0001784
INCLINATION    = 42.9990
RA_OF_ASC_NODE = 181.0442
ARG_OF_PERICENTER = 272.9774
MEAN_ANOMALY   = 98.7273

EPHEMERIS_TYPE = 0
CLASSIFICATION_TYPE = U
NORAD_CAT_ID   = 66508
ELEMENT_SET_NO = 999
REV_AT_EPOCH   = 411
BSTAR          = -.16435641E-1
MEAN_MOTION_DOT = -.1994453E-1
MEAN_MOTION_DDOT = 0

CCSDS_OMM_VERS = 2.0
CREATION_DATE  = 
ORIGINATOR     = 

OBJECT_NAME    = STARLINK-35598
OBJECT_ID      = 2025-263AA
CENTER_NAME    = EARTH
REF_FRAME      = TEME
TIME_SYSTEM    = UTC
MEAN_ELEMENT_THEORY = SGP/SGP4

EPOCH          = 2025-12-03T06:00:02.999808
MEAN_MOTION    = 15.72456106
ECCENTRICITY   = .00017921
INCLINATION    = 42.9989
RA_OF_ASC_NODE = 181.0230
ARG_OF_PERICENTER = 272.6892
MEAN_ANOMALY   = 106.6847

EPHEMERIS_TYPE = 0
CLASSIFICATION_TYPE = U
NORAD_CAT_ID   = 66509
ELEMENT_SET_NO = 999
REV_AT_EPOCH   = 411
BSTAR          = -.16419602E-1
MEAN_MOTION_DOT = -.1992618E-1
MEAN_MOTION_DDOT = 0

