STARLINK-35907          
1 66498U 25263P   25337.33335648 -.01991247  00000+0 -16663-1 0  9993
2 66498  42.9992 180.5889 0001653 269.4383 195.2841 15.72097847  4126
STARLINK-35816          
1 66499U 25263Q   25337.33335648 -.01989027  00000+0 -16643-1 0  9995
2 66499  42.9990 180.5797 0001634 273.5375 195.0207 15.72095848  4122
STARLINK-35894          
1 66500U 25263R   25337.33335648 -.02492291  00000+0 -21510-1 0  9990
2 66500  42.9992 180.5858 0001538 273.0233 193.1385 15.71580535  4123
STARLINK-35897          
1 66501U 25263S   25337.33335648 -.01985661  00000+0 -16615-1 0  9998
2 66501  42.9991 180.5747 0001551 270.9116 199.5668 15.72092241  4128
STARLINK-35922          
1 66502U 25263T   25337.25003472 -.01996875  00000+0 -16458-1 0  9991
2 66502  42.9991 181.0631 0001711 270.3670  93.6708 15.72458863  4118
STARLINK-35917          
1 66503U 25263U   25337.25003472 -.01995302  00000+0 -16447-1 0  9994
2 66503  42.9990 181.0536 0001660 271.6287  96.2485 15.72454852  4118
STARLINK-35916          
1 66504U 25263V   25337.25003472 -.02142380  00000+0 -36672-1 0  9998
2 66504  42.9992 181.5334 0001582 284.1196 250.5204 15.53795368  4116
STARLINK-34766          
1 66505U 25263W   25337.25003472 -.01998543  00000+0 -16473-1 0  9995
2 66505  42.9991 181.0728 0001716 263.6615  96.5403 15.72460279  4115
STARLINK-34765          
1 66506U 25263X   25337.25003472 -.01996061  00000+0 -16452-1 0  9996
2 66506  42.9990 181.0686 0001669 263.8283  98.2926 15.72457756  4113
STARLINK-34767          
1 66507U 25263Y   25337.25003472 -.01997289  00000+0 -16463-1 0  9992
2 66507  42.9990 181.0579 0001801 272.3876  93.5714 15.72456087  4115
STARLINK-35608          
1 66508U 25263Z   25337.25003472 -.01994453  00000+0 -16436-1 0  9993
2 66508  42.9990 181.0442 0001784 272.9774  98.7273 15.72457762  4116
STARLINK-35598          
1 66509U 25263AA  25337.25003472 -.01992618  00000+0 -16420-1 0  9998
2 66509  42.9989 181.0230 0001792 272.6892 106.6847 15.72456106  4114
